{"type": "FeatureCollection", "features": [ {"type": "Feature", "properties": {"norad_id": 40118, "name": "GAOFEN-2", "group": "resource", "lat": 81.60641614264394, "lon": -51.93204101818021, "alt_km": 613.7949998840977, "timestamp": "2025-12-21T14:40:47.567862+00:00", "meta": {"OBJECT_NAME": "GAOFEN-2", "OBJECT_ID": "2014-049A", "EPOCH": "2025-12-21T06:09:17.902944", "MEAN_MOTION": 14.80621544, "ECCENTRICITY": 0.0008744, "INCLINATION": 98.0378, "RA_OF_ASC_NODE": 54.4399, "ARG_OF_PERICENTER": 89.5153, "MEAN_ANOMALY": 270.7061, "EPHEMERIS_TYPE": 0, "CLASSIFICATION_TYPE": "U", "NORAD_CAT_ID": 40118, "ELEMENT_SET_NO": 999, "REV_AT_EPOCH": 61290, "BSTAR": 6.8556189e-05, "MEAN_MOTION_DOT": 4.73e-06, "MEAN_MOTION_DDOT": 0}, "tle": {"line1": "1 40118U 14049A   25355.25645721  .00000473  00000+0  68556-4 0  9991", "line2": "2 40118  98.0378  54.4399 0008744  89.5153 270.7061 14.80621544612905"}}, "geometry": {"type": "Point", "coordinates": [-51.93204101818021, 81.60641614264394]}}, {"type": "Feature", "properties": {"norad_id": 40143, "name": "YAOGAN-21", "group": "resource", "lat": -10.125456571709696, "lon": 39.82837653121946, "alt_km": 493.2016070609943, "timestamp": "2025-12-21T14:40:47.567872+00:00", "meta": {"OBJECT_NAME": "YAOGAN-21", "OBJECT_ID": "2014-053A", "EPOCH": "2025-12-21T06:50:38.873760", "MEAN_MOTION": 15.23753598, "ECCENTRICITY": 0.00089276, "INCLINATION": 97.1743, "RA_OF_ASC_NODE": 38.2271, "ARG_OF_PERICENTER": 14.2764, "MEAN_ANOMALY": 345.8724, "EPHEMERIS_TYPE": 0, "CLASSIFICATION_TYPE": "U", "NORAD_CAT_ID": 40143, "ELEMENT_SET_NO": 999, "REV_AT_EPOCH": 62784, "BSTAR": 0.00013608957, "MEAN_MOTION_DOT": 3.207e-05, "MEAN_MOTION_DDOT": 0}, "tle": {"line1": "1 40143U 14053A   25355.28517215  .00003207  00000+0  13609-3 0  9999", "line2": "2 40143  97.1743  38.2271 0008927  14.2764 345.8724 15.23753598627846"}}, "geometry": {"type": "Point", "coordinates": [39.82837653121946, -10.125456571709696]}}, {"type": "Feature", "properties": {"norad_id": 40275, "name": "YAOGAN-22", "group": "resource", "lat": 26.09004964166312, "lon": 133.8225237567468, "alt_km": 1205.0076976961836, "timestamp": "2025-12-21T14:40:47.567883+00:00", "meta": {"OBJECT_NAME": "YAOGAN-22", "OBJECT_ID": "2014-063A", "EPOCH": "2025-12-21T03:35:36.881088", "MEAN_MOTION": 13.15522896, "ECCENTRICITY": 0.00060333, "INCLINATION": 100.7428, "RA_OF_ASC_NODE": 138.6881, "ARG_OF_PERICENTER": 228.0657, "MEAN_ANOMALY": 131.9941, "EPHEMERIS_TYPE": 0, "CLASSIFICATION_TYPE": "U", "NORAD_CAT_ID": 40275, "ELEMENT_SET_NO": 999, "REV_AT_EPOCH": 53640, "BSTAR": 3.0794129e-05, "MEAN_MOTION_DOT": -3.5e-07, "MEAN_MOTION_DDOT": 0}, "tle": {"line1": "1 40275U 14063A   25355.14973242 -.00000035  00000+0  30794-4 0  9999", "line2": "2 40275 100.7428 138.6881 0006033 228.0657 131.9941 13.15522896536407"}}, "geometry": {"type": "Point", "coordinates": [133.8225237567468, 26.09004964166312]}}, {"type": "Feature", "properties": {"norad_id": 40298, "name": "ASNARO", "group": "resource", "lat": -81.65309432113635, "lon": -170.48912450336053, "alt_km": 518.0625919812555, "timestamp": "2025-12-21T14:40:47.567893+00:00", "meta": {"OBJECT_NAME": "ASNARO", "OBJECT_ID": "2014-070A", "EPOCH": "2025-12-21T05:36:40.449600", "MEAN_MOTION": 15.19652292, "ECCENTRICITY": 0.00056752, "INCLINATION": 97.3648, "RA_OF_ASC_NODE": 70.9733, "ARG_OF_PERICENTER": 99.8641, "MEAN_ANOMALY": 260.3235, "EPHEMERIS_TYPE": 0, "CLASSIFICATION_TYPE": "U", "NORAD_CAT_ID": 40298, "ELEMENT_SET_NO": 999, "REV_AT_EPOCH": 61698, "BSTAR": 0.00029955752, "MEAN_MOTION_DOT": 6.324e-05, "MEAN_MOTION_DDOT": 0}, "tle": {"line1": "1 40298U 14070A   25355.23380150  .00006324  00000+0  29956-3 0  9995", "line2": "2 40298  97.3648  70.9733 0005675  99.8641 260.3235 15.19652292616984"}}, "geometry": {"type": "Point", "coordinates": [-170.48912450336053, -81.65309432113635]}}, {"type": "Feature", "properties": {"norad_id": 40310, "name": "YAOGAN-24", "group": "resource", "lat": -63.97366054307704, "lon": 143.75907030343902, "alt_km": 659.1648134524494, "timestamp": "2025-12-21T14:40:47.567903+00:00", "meta": {"OBJECT_NAME": "YAOGAN-24", "OBJECT_ID": "2014-072A", "EPOCH": "2025-12-21T06:50:29.474304", "MEAN_MOTION": 14.76193843, "ECCENTRICITY": 0.00151204, "INCLINATION": 98.1227, "RA_OF_ASC_NODE": 126.424, "ARG_OF_PERICENTER": 112.4496, "MEAN_ANOMALY": 247.8316, "EPHEMERIS_TYPE": 0, "CLASSIFICATION_TYPE": "U", "NORAD_CAT_ID": 40310, "ELEMENT_SET_NO": 999, "REV_AT_EPOCH": 59747, "BSTAR": 0.00012616317, "MEAN_MOTION_DOT": 8.21e-06, "MEAN_MOTION_DDOT": 0}, "tle": {"line1": "1 40310U 14072A   25355.28506336  .00000821  00000+0  12616-3 0  9994", "line2": "2 40310  98.1227 126.4240 0015120 112.4496 247.8316 14.76193843597473"}}, "geometry": {"type": "Point", "coordinates": [143.75907030343902, -63.97366054307704]}}, {"type": "Feature", "properties": {"norad_id": 40336, "name": "CBERS 4", "group": "resource", "lat": 1.3840345995015837, "lon": -126.4721215471731, "alt_km": 775.789994187192, "timestamp": "2025-12-21T14:40:47.567913+00:00", "meta": {"OBJECT_NAME": "CBERS 4", "OBJECT_ID": "2014-079A", "EPOCH": "2025-12-21T07:09:35.697312", "MEAN_MOTION": 14.35520503, "ECCENTRICITY": 0.0001825, "INCLINATION": 98.3301, "RA_OF_ASC_NODE": 53.0225, "ARG_OF_PERICENTER": 103.2398, "MEAN_ANOMALY": 256.8992, "EPHEMERIS_TYPE": 0, "CLASSIFICATION_TYPE": "U", "NORAD_CAT_ID": 40336, "ELEMENT_SET_NO": 999, "REV_AT_EPOCH": 57843, "BSTAR": 3.9951213e-05, "MEAN_MOTION_DOT": 7.3e-07, "MEAN_MOTION_DDOT": 0}, "tle": {"line1": "1 40336U 14079A   25355.29832983  .00000073  00000+0  39951-4 0  9991", "line2": "2 40336  98.3301  53.0225 0001825 103.2398 256.8992 14.35520503578437"}}, "geometry": {"type": "Point", "coordinates": [-126.4721215471731, 1.3840345995015837]}}, {"type": "Feature", "properties": {"norad_id": 40362, "name": "YAOGAN-26", "group": "resource", "lat": -26.23054522062068, "lon": 172.46799814722428, "alt_km": 456.31642480699156, "timestamp": "2025-12-21T14:40:47.567923+00:00", "meta": {"OBJECT_NAME": "YAOGAN-26", "OBJECT_ID": "2014-088A", "EPOCH": "2025-12-21T05:59:12.821280", "MEAN_MOTION": 15.39578683, "ECCENTRICITY": 0.00050725, "INCLINATION": 97.0633, "RA_OF_ASC_NODE": 355.6212, "ARG_OF_PERICENTER": 4.9119, "MEAN_ANOMALY": 355.2177, "EPHEMERIS_TYPE": 0, "CLASSIFICATION_TYPE": "U", "NORAD_CAT_ID": 40362, "ELEMENT_SET_NO": 999, "REV_AT_EPOCH": 61025, "BSTAR": 0.00043109602, "MEAN_MOTION_DOT": 0.00016908, "MEAN_MOTION_DDOT": 0}, "tle": {"line1": "1 40362U 14088A   25355.24945395  .00016908  00000+0  43110-3 0  9992", "line2": "2 40362  97.0633 355.6212 0005072   4.9119 355.2177 15.39578683610256"}}, "geometry": {"type": "Point", "coordinates": [172.46799814722428, -26.23054522062068]}}, {"type": "Feature", "properties": {"norad_id": 40376, "name": "SMAP", "group": "resource", "lat": -8.852054536946904, "lon": 178.93209261940382, "alt_km": 686.5598646270219, "timestamp": "2025-12-21T14:40:47.567933+00:00", "meta": {"OBJECT_NAME": "SMAP", "OBJECT_ID": "2015-003A", "EPOCH": "2025-12-21T05:36:52.531776", "MEAN_MOTION": 14.63354929, "ECCENTRICITY": 0.00012259, "INCLINATION": 98.1288, "RA_OF_ASC_NODE": 359.8353, "ARG_OF_PERICENTER": 91.3876, "MEAN_ANOMALY": 268.7467, "EPHEMERIS_TYPE": 0, "CLASSIFICATION_TYPE": "U", "NORAD_CAT_ID": 40376, "ELEMENT_SET_NO": 999, "REV_AT_EPOCH": 58159, "BSTAR": 9.1628183e-05, "MEAN_MOTION_DOT": 4.26e-06, "MEAN_MOTION_DDOT": 0}, "tle": {"line1": "1 40376U 15003A   25355.23394134  .00000426  00000+0  91628-4 0  9999", "line2": "2 40376  98.1288 359.8353 0001225  91.3876 268.7467 14.63354929581592"}}, "geometry": {"type": "Point", "coordinates": [178.93209261940382, -8.852054536946904]}}, {"type": "Feature", "properties": {"norad_id": 40536, "name": "KOMPSAT-3A", "group": "resource", "lat": -63.38702601072175, "lon": -13.927108583936416, "alt_km": 444.5236199465653, "timestamp": "2025-12-21T14:40:47.567943+00:00", "meta": {"OBJECT_NAME": "KOMPSAT-3A", "OBJECT_ID": "2015-014A", "EPOCH": "2025-12-21T05:37:39.870336", "MEAN_MOTION": 15.44233559, "ECCENTRICITY": 0.00055002, "INCLINATION": 97.6794, "RA_OF_ASC_NODE": 330.0516, "ARG_OF_PERICENTER": 107.851, "MEAN_ANOMALY": 252.3338, "EPHEMERIS_TYPE": 0, "CLASSIFICATION_TYPE": "U", "NORAD_CAT_ID": 40536, "ELEMENT_SET_NO": 999, "REV_AT_EPOCH": 59426, "BSTAR": 0.00034158775, "MEAN_MOTION_DOT": 0.00015617, "MEAN_MOTION_DDOT": 0}, "tle": {"line1": "1 40536U 15014A   25355.23448924  .00015617  00000+0  34159-3 0  9999", "line2": "2 40536  97.6794 330.0516 0005500 107.8510 252.3338 15.44233559594265"}}, "geometry": {"type": "Point", "coordinates": [-13.927108583936416, -63.38702601072175]}}, {"type": "Feature", "properties": {"norad_id": 40697, "name": "SENTINEL-2A", "group": "resource", "lat": 77.10781082115409, "lon": -70.74398591982383, "alt_km": 780.9894150474047, "timestamp": "2025-12-21T14:40:47.567953+00:00", "meta": {"OBJECT_NAME": "SENTINEL-2A", "OBJECT_ID": "2015-028A", "EPOCH": "2025-12-21T07:30:09.516096", "MEAN_MOTION": 14.30808877, "ECCENTRICITY": 0.0001087, "INCLINATION": 98.5743, "RA_OF_ASC_NODE": 67.725, "ARG_OF_PERICENTER": 89.2441, "MEAN_ANOMALY": 270.8867, "EPHEMERIS_TYPE": 0, "CLASSIFICATION_TYPE": "U", "NORAD_CAT_ID": 40697, "ELEMENT_SET_NO": 999, "REV_AT_EPOCH": 54829, "BSTAR": 9.8810117e-05, "MEAN_MOTION_DOT": 2.15e-06, "MEAN_MOTION_DDOT": 0}, "tle": {"line1": "1 40697U 15028A   25355.31261014  .00000215  00000+0  98810-4 0  9997", "line2": "2 40697  98.5743  67.7250 0001087  89.2441 270.8867 14.30808877548297"}}, "geometry": {"type": "Point", "coordinates": [-70.74398591982383, 77.10781082115409]}}]}